OBJECT_NAME,OBJECT_ID,EPOCH,MEAN_MOTION,ECCENTRICITY,INCLINATION,RA_OF_ASC_NODE,ARG_OF_PERICENTER,MEAN_ANOMALY,EPHEMERIS_TYPE,CLASSIFICATION_TYPE,NORAD_CAT_ID,ELEMENT_SET_NO,REV_AT_EPOCH,BSTAR,MEAN_MOTION_DOT,MEAN_MOTION_DDOT
STARLINK-4400,2022-099D,2026-05-10T19:53:29.126976,15.05654279,.0000442,97.5093,251.2434,112.0152,248.1122,0,U,53468,999,20532,.27766E-6,-.55E-6,0
STARLINK-4621,2022-105AE,2026-05-10T15:10:23.053728,15.05653972,.0003078,97.5105,11.0609,74.3794,285.7772,0,U,53676,999,20255,-.63177E-4,-.971E-5,0
SHERPA-LTC2,2022-107BG,2026-05-10T20:17:59.123616,14.69164018,.0397869,53.2348,18.3557,121.7114,242.3292,0,U,53754,999,19705,.21851E-3,.4172E-4,0
CENTISPACE-1 S3,2022-108A,2026-05-10T20:39:31.869792,14.61217887,.0008289,53.5324,209.6020,240.5082,119.5067,0,U,53757,999,19607,.79095E-4,.204E-5,0
CENTISPACE-1 S4,2022-108B,2026-05-10T17:24:52.762752,14.61890249,.0008086,53.5298,207.8550,225.7249,134.3064,0,U,53758,999,19608,.10185E-3,.323E-5,0
BLUEWALKER-3,2022-111AL,2026-05-10T13:19:17.724864,15.37820801,.0007318,53.2285,210.5759,64.3344,295.8416,0,U,53807,999,20441,.11235E-3,.3847E-4,0
YUNHAI-1 03,2022-115A,2026-05-10T21:27:15.234048,14.32691878,.000534,98.5538,129.5159,144.3493,215.8048,0,U,53877,999,19017,.11083E-3,.258E-5,0
CENTISPACE-1 S5,2022-126A,2026-05-10T20:19:17.089248,14.62945312,.0012144,55.0003,2.3767,357.6049,2.4885,0,U,54020,999,19157,.1369E-3,.517E-5,0
CENTISPACE-1 S6,2022-126B,2026-05-10T19:43:06.591648,14.62235878,.0013978,55.0006,4.1709,356.4459,3.6434,0,U,54021,999,19153,.1206E-3,.424E-5,0
OTB-3-GAZELLE,2022-127A,2026-05-10T12:54:42.514848,14.42660628,.0012087,98.3940,122.8181,305.8954,54.1114,0,U,54023,999,18893,.43343E-4,.101E-5,0
ASO-S,2022-129A,2026-05-10T21:43:40.194048,14.52043187,.0013735,98.2757,136.5194,202.2430,157.8171,0,U,54029,999,19001,.39216E-4,.114E-5,0
HJ-2E,2022-132A,2026-05-10T21:01:53.464800,15.21755739,.0022137,97.3811,135.9423,136.6176,223.6807,0,U,54035,999,19874,.22401E-3,.5041E-4,0
COSMOS 2561,2022-137A,2026-05-10T21:01:05.631168,15.50755627,.0010839,96.9223,191.2893,154.3385,205.8408,0,U,54109,999,20056,.15955E-3,.9115E-4,0
GONETS-M 23,2022-139A,2026-05-10T19:57:39.369024,12.42889109,.0020847,82.5101,11.5103,305.4431,54.4703,0,U,54150,999,16100,.57911E-4,.18E-6,0
GONETS-M 24,2022-139B,2026-05-10T19:18:57.462336,12.42889693,.0016244,82.5003,10.6125,316.9913,42.9896,0,U,54151,999,16100,.65668E-4,.19E-6,0
GONETS-M 25,2022-139C,2026-05-10T18:59:17.977920,12.42888964,.0020129,82.5078,11.2871,314.7841,45.1600,0,U,54152,999,16100,-.21564E-6,.1E-6,0
SKIF-D,2022-139D,2026-05-09T06:49:32.850336,5.00439038,.00073738,89.9558,96.6795,214.5123,145.4786,0,U,54153,999,6216,0,.4E-6,0
MATS,2022-147A,2026-05-10T18:07:56.870112,15.05119295,.0011735,97.6826,132.5216,333.1831,26.8788,0,U,54227,999,19213,.21459E-3,.2996E-4,0
JILIN-1 GAOFEN 03D54,2022-155D,2026-05-10T20:49:07.148640,15.82420803,.000217,97.6082,279.5562,166.6297,193.5028,0,U,54254,999,19437,.55818E-3,.116528E-2,0
EOS-6 (OCEANSAT-3),2022-158A,2026-05-10T21:23:43.550592,14.47018590,.0002257,98.3524,229.5847,90.4442,269.7010,0,U,54361,999,18244,.5917E-4,.172E-5,0
DONGPO 09,2022-167D,2026-05-10T21:11:50.392032,15.35512246,.0001338,97.6878,300.2574,232.7132,127.3988,0,U,54685,999,18972,.22695E-3,.7746E-4,0
DONGPO 08,2022-167E,2026-05-10T20:45:14.357664,15.32917029,.000701,97.6838,297.5903,303.6157,56.4415,0,U,54686,999,18960,.20895E-3,.6563E-4,0
2022-167F,2022-167F,2026-05-10T05:15:19.871136,15.80513886,.000319,97.6176,313.8348,184.9018,175.2219,0,U,54687,999,19081,.46621328E-3,.88865E-3,0
DONGPO 10,2022-167H,2026-05-10T21:22:37.825248,15.33696534,.0004031,97.6923,299.4812,236.2555,123.8303,0,U,54689,999,18964,.21839E-3,.7032E-4,0
JILIN-1 GAOFEN 03D48,2022-167P,2026-05-10T20:11:33.682848,15.34427166,.0005314,97.6856,298.7965,242.7817,117.2884,0,U,54695,999,18966,.21825E-3,.7194E-4,0
STAR VIBE,2023-001A,2026-05-10T20:36:04.934016,15.41599375,.0004494,97.3192,195.1973,236.4705,123.6114,0,U,55009,999,18647,.22513E-3,.9387E-4,0
BRO-8,2023-001C,2026-05-10T19:27:34.410816,15.46839349,.0004773,97.3237,195.5186,243.3685,116.7076,0,U,55011,999,18642,.37744E-3,.18885E-3,0
CONNECTA T1.2,2023-001D,2026-05-10T15:28:44.234688,15.48064107,.0005786,97.3298,200.7440,215.1579,144.9290,0,U,55012,999,18673,.43168E-3,.22564E-3,0
BIRKELAND,2023-001G,2026-05-10T20:13:31.827936,15.39417522,.0005577,97.3364,198.7332,227.7742,132.3031,0,U,55015,999,18660,.14635E-3,.5646E-4,0
ION SCV-008,2023-001AU,2026-05-10T18:53:54.415104,15.28108708,.001607,97.5682,226.4988,141.0169,219.2232,0,U,55051,999,18562,.16846E-3,.4555E-4,0
