STARLINK-4400           
1 53468U 22099D   26130.82880934 -.00000055  00000+0  27766-6 0  9996
2 53468  97.5093 251.2434 0000442 112.0152 248.1122 15.05654279205320
STARLINK-4621           
1 53676U 22105AE  26130.63221127 -.00000971  00000+0 -63177-4 0  9999
2 53676  97.5105  11.0609 0003078  74.3794 285.7772 15.05653972202550
SHERPA-LTC2             
1 53754U 22107BG  26130.84582319  .00004172  00000+0  21851-3 0  9991
2 53754  53.2348  18.3557 0397869 121.7114 242.3292 14.69164018197055
CENTISPACE-1 S3         
1 53757U 22108A   26130.86078553  .00000204  00000+0  79095-4 0  9993
2 53757  53.5324 209.6020 0008289 240.5082 119.5067 14.61217887196075
CENTISPACE-1 S4         
1 53758U 22108B   26130.72561068  .00000323  00000+0  10185-3 0  9993
2 53758  53.5298 207.8550 0008086 225.7249 134.3064 14.61890249196081
BLUEWALKER-3            
1 53807U 22111AL  26130.55506626  .00003847  00000+0  11235-3 0  9993
2 53807  53.2285 210.5759 0007318  64.3344 295.8416 15.37820801204413
YUNHAI-1 03             
1 53877U 22115A   26130.89392632  .00000258  00000+0  11083-3 0  9995
2 53877  98.5538 129.5159 0005340 144.3493 215.8048 14.32691878190177
CENTISPACE-1 S5         
1 54020U 22126A   26130.84672557  .00000517  00000+0  13690-3 0  9994
2 54020  55.0003   2.3767 0012144 357.6049   2.4885 14.62945312191574
CENTISPACE-1 S6         
1 54021U 22126B   26130.82160407  .00000424  00000+0  12060-3 0  9996
2 54021  55.0006   4.1709 0013978 356.4459   3.6434 14.62235878191530
OTB-3-GAZELLE           
1 54023U 22127A   26130.53799207  .00000101  00000+0  43343-4 0  9994
2 54023  98.3940 122.8181 0012087 305.8954  54.1114 14.42660628188938
ASO-S                   
1 54029U 22129A   26130.90532632  .00000114  00000+0  39216-4 0  9998
2 54029  98.2757 136.5194 0013735 202.2430 157.8171 14.52043187190017
HJ-2E                   
1 54035U 22132A   26130.87631325  .00005041  00000+0  22401-3 0  9995
2 54035  97.3811 135.9423 0022137 136.6176 223.6807 15.21755739198742
COSMOS 2561             
1 54109U 22137A   26130.87575962  .00009115  00000+0  15955-3 0  9998
2 54109  96.9223 191.2893 0010839 154.3385 205.8408 15.50755627200568
GONETS-M 23             
1 54150U 22139A   26130.83170566  .00000018  00000+0  57911-4 0  9995
2 54150  82.5101  11.5103 0020847 305.4431  54.4703 12.42889109161001
GONETS-M 24             
1 54151U 22139B   26130.80483174  .00000019  00000+0  65668-4 0  9994
2 54151  82.5003  10.6125 0016244 316.9913  42.9896 12.42889693161008
GONETS-M 25             
1 54152U 22139C   26130.79118030  .00000010  00000+0 -21564-6 0  9990
2 54152  82.5078  11.2871 0020129 314.7841  45.1600 12.42888964161007
SKIF-D                  
1 54153U 22139D   26129.28440799  .00000040  00000+0  00000+0 0  9990
2 54153  89.9558  96.6795 0007373 214.5123 145.4786  5.00439038 62166
MATS                    
1 54227U 22147A   26130.75551933  .00002996  00000+0  21459-3 0  9995
2 54227  97.6826 132.5216 0011735 333.1831  26.8788 15.05119295192132
JILIN-1 GAOFEN 03D54    
1 54254U 22155D   26130.86744385  .00116528  00000+0  55818-3 0  9994
2 54254  97.6082 279.5562 0002170 166.6297 193.5028 15.82420803194372
EOS-6 (OCEANSAT-3)      
1 54361U 22158A   26130.89147628  .00000172  00000+0  59170-4 0  9999
2 54361  98.3524 229.5847 0002257  90.4442 269.7010 14.47018590182441
DONGPO 09               
1 54685U 22167D   26130.88322213  .00007746  00000+0  22695-3 0  9997
2 54685  97.6878 300.2574 0001338 232.7132 127.3988 15.35512246189720
DONGPO 08               
1 54686U 22167E   26130.86474951  .00006563  00000+0  20895-3 0  9999
2 54686  97.6838 297.5903 0007010 303.6157  56.4415 15.32917029189608
2022-167F               
1 54687U 22167F   26130.21897999  .00088865  00000+0  46621-3 0  9990
2 54687  97.6176 313.8348 0003190 184.9018 175.2219 15.80513886190813
DONGPO 10               
1 54689U 22167H   26130.89071557  .00007032  00000+0  21839-3 0  9991
2 54689  97.6923 299.4812 0004031 236.2555 123.8303 15.33696534189644
JILIN-1 GAOFEN 03D48    
1 54695U 22167P   26130.84136207  .00007194  00000+0  21825-3 0  9991
2 54695  97.6856 298.7965 0005314 242.7817 117.2884 15.34427166189662
STAR VIBE               
1 55009U 23001A   26130.85839044  .00009387  00000+0  22513-3 0  9990
2 55009  97.3192 195.1973 0004494 236.4705 123.6114 15.41599375186478
BRO-8                   
1 55011U 23001C   26130.81081494  .00018885  00000+0  37744-3 0  9992
2 55011  97.3237 195.5186 0004773 243.3685 116.7076 15.46839349186423
CONNECTA T1.2           
1 55012U 23001D   26130.64495642  .00022564  00000+0  43168-3 0  9994
2 55012  97.3298 200.7440 0005786 215.1579 144.9290 15.48064107186736
BIRKELAND               
1 55015U 23001G   26130.84272949  .00005646  00000+0  14635-3 0  9991
2 55015  97.3364 198.7332 0005577 227.7742 132.3031 15.39417522186601
ION SCV-008             
1 55051U 23001AU  26130.78743536  .00004555  00000+0  16846-3 0  9993
2 55051  97.5682 226.4988 0016070 141.0169 219.2232 15.28108708185623
